[{"OBJECT_NAME":"IRIDIUM 124","OBJECT_ID":"2017-039H","EPOCH":"2026-03-09T23:29:37.068864","MEAN_MOTION":14.432748,"ECCENTRICITY":0.0002084,"INCLINATION":86.4531,"RA_OF_ASC_NODE":331.8553,"ARG_OF_PERICENTER":84.6213,"MEAN_ANOMALY":275.5226,"EPHEMERIS_TYPE":0,"CLASSIFICATION_TYPE":"U","NORAD_CAT_ID":42810,"ELEMENT_SET_NO":999,"REV_AT_EPOCH":46080,"BSTAR":0.00013794234,"MEAN_MOTION_DOT":4.84e-6,"MEAN_MOTION_DDOT":0},{"OBJECT_NAME":"CZ-6A DEB","OBJECT_ID":"2024-140QY","EPOCH":"2026-03-09T14:30:37.676736","MEAN_MOTION":14.64457218,"ECCENTRICITY":0.0127997,"INCLINATION":89.2719,"RA_OF_ASC_NODE":301.1007,"ARG_OF_PERICENTER":244.8334,"MEAN_ANOMALY":113.9562,"EPHEMERIS_TYPE":0,"CLASSIFICATION_TYPE":"U","NORAD_CAT_ID":61154,"ELEMENT_SET_NO":999,"REV_AT_EPOCH":8238,"BSTAR":0.0010133,"MEAN_MOTION_DOT":6.064e-5,"MEAN_MOTION_DDOT":0}]
